NORAD_CAT_ID,OBJECT_NAME,OBJECT_TYPE,EPOCH,MEAN_MOTION,ECCENTRICITY,INCLINATION,RA_OF_ASC_NODE,ARG_OF_PERICENTER,MEAN_ANOMALY,BSTAR,MEAN_MOTION_DOT,MEAN_MOTION_DDOT,TLE_LINE0,TLE_LINE1,TLE_LINE2,SEMIMAJOR_AXIS,PERIOD,APOGEE,PERIGEE,DECAYED
54092.0,STARLINK-5190,PAYLOAD,2022-10-25 18:00:00,15.90143035,0.0030353,53.2173,122.8408,56.1902,291.2073,-0.0041671,-0.01339446,0.00051125,0 STARLINK-5190,1 54092U 22136AT  22298.75001157 -.01339446  51125-3 -41671-2 0  9993,2 54092  53.2173 122.8408 0030353  56.1902 291.2073 15.90143035  1304,6680.019,90.558,322.16,281.608,0.0
54092.0,STARLINK-5190,PAYLOAD,2022-10-25 22:00:01,15.89712066,0.0029011999999999,53.2174,121.9965,57.1963,164.7754,-0.0043089,-0.01349518,0.00051617,0 STARLINK-5190,1 54092U 22136AT  22298.91668981 -.01349518  51617-3 -43089-2 0  9997,2 54092  53.2174 121.9965 0029012  57.1963 164.7754 15.89712066  1305,6681.226,90.582,322.475,283.708,0.0
54092.0,STARLINK-5190,PAYLOAD,2022-10-26 04:00:00,15.89033643,0.0026735,53.217,120.7284,57.1691,156.0258,-0.0043457999999999,-0.01307602,0.00048424,0 STARLINK-5190,1 54092U 22136AT  22299.16667824 -.01307602  48424-3 -43458-2 0  9990,2 54092  53.2170 120.7284 0026735  57.1691 156.0258 15.89033643  1365,6683.128000000002,90.621,322.86,287.126,0.0
54092.0,STARLINK-5190,PAYLOAD,2022-10-26 12:00:00,15.88077649,0.0022808,53.2174,119.039,57.2416,263.452,-0.0040994,-0.01166656,0.00039,0 STARLINK-5190,1 54092U 22136AT  22299.50001157 -.01166656  39000-3 -40994-2 0  9993,2 54092  53.2174 119.0390 0022808  57.2416 263.4520 15.88077649  1415,6685.81,90.676,322.9240000000001,292.426,0.0
54092.0,STARLINK-5190,PAYLOAD,2022-10-26 14:00:01,15.87928599,0.002222,53.2174,118.6182,56.3855,20.966,-0.004456,-0.01256261,0.00044558,0 STARLINK-5190,1 54092U 22136AT  22299.58334491 -.01256261  44558-3 -44560-2 0  9990,2 54092  53.2174 118.6182 0022220  56.3855  20.9660 15.87928599  1301,6686.228,90.684,322.95,293.236,0.0
54092.0,STARLINK-5190,PAYLOAD,2022-10-26 20:00:01,15.87305828,0.0019647,53.2176,117.3561,54.7035,12.3437,-0.0047975,-0.01304573,0.00047456,0 STARLINK-5190,1 54092U 22136AT  22299.83334491 -.01304573  47456-3 -47975-2 0  9991,2 54092  53.2176 117.3561 0019647  54.7035  12.3437 15.87305828  1470,6687.977,90.72,322.982,296.702,0.0
54092.0,STARLINK-5190,PAYLOAD,2022-10-26 22:00:00,15.8710525,0.0018826,53.2176,116.9353,54.525,128.95600000000002,-0.0049842,-0.01339728,0.00049721,0 STARLINK-5190,1 54092U 22136AT  22299.91667824 -.01339728  49721-3 -49842-2 0  9991,2 54092  53.2176 116.9353 0018826  54.5250 128.9560 15.87105250  1309,6688.54,90.731,322.997,297.814,0.0
54092.0,STARLINK-5190,PAYLOAD,2022-10-27 04:00:00,15.86456038,0.0015719,53.2173,115.6717,54.2187,118.1897,-0.0051855,-0.01186714,0.0,0 STARLINK-5190,1 54092U 22136AT  22300.16667824 -.01186714  00000-0 -51855-2 0  9997,2 54092  53.2173 115.6717 0015719  54.2187 118.1897 15.86456038  1520,6690.365,90.768,322.747,301.713,0.0
54092.0,STARLINK-5190,PAYLOAD,2022-10-27 12:00:02,15.85604286,0.0012043,53.2174,113.9895,51.3045,225.4879,-0.0055612,-0.01232563,0.0,0 STARLINK-5190,1 54092U 22136AT  22300.50002315 -.01232563  00000-0 -55612-2 0  9992,2 54092  53.2174 113.9895 0012043  51.3045 225.4879 15.85604286  1573,6692.761,90.817,322.686,306.566,0.0
54092.0,STARLINK-5190,PAYLOAD,2022-10-27 14:00:01,15.85357581,0.0011329,53.2171,113.5701,52.1937,340.5278,-0.0053891999999999,-0.01163057,0.0,0 STARLINK-5190,1 54092U 22136AT  22300.58335648 -.01163057  00000-0 -53892-2 0  9997,2 54092  53.2171 113.5701 0011329  52.1937 340.5278 15.85357581  1303,6693.455,90.831,322.903,307.737,0.0
54092.0,STARLINK-5190,PAYLOAD,2022-10-27 22:00:00,15.84477224,0.0008074,53.2174,111.8939,46.1387,89.5392,-0.0055291,-0.011413,0.0,0 STARLINK-5190,1 54092U 22136AT  22300.91667824 -.01141300  00000-0 -55291-2 0  9990,2 54092  53.2174 111.8939 0008074  46.1387  89.5392 15.84477224  1308,6695.934,90.882,323.205,312.393,0.0
54092.0,STARLINK-5190,PAYLOAD,2022-10-28 04:00:00,15.83813389,0.0005912,53.2175,110.6353,36.5601,85.7085,-0.0056473,-0.01148793,0.0,0 STARLINK-5190,1 54092U 22136AT  22301.16667824 -.01148793  00000-0 -56473-2 0  9994,2 54092  53.2175 110.6353 0005912  36.5601  85.7085 15.83813389  1689,6697.805,90.92,323.63,315.71,0.0
54092.0,STARLINK-5190,PAYLOAD,2022-10-28 12:00:02,15.82981927,0.0003311,53.2173,108.9594,11.4201,212.0939,-0.0061986,-0.01202778,0.0,0 STARLINK-5190,1 54092U 22136AT  22301.50002315 -.01202778  00000-0 -61986-2 0  9999,2 54092  53.2173 108.9594 0003311  11.4201 212.0939 15.82981927  1735,6700.15,90.968,324.2340000000001,319.797,0.0
54092.0,STARLINK-5190,PAYLOAD,2022-10-28 14:00:01,15.827650699999998,0.0002988,53.2174,108.5416,351.3887,347.2586,-0.006247,-0.0119982999999999,0.0,0 STARLINK-5190,1 54092U 22136AT  22301.58335648 -.01199830  00000-0 -62470-2 0  9998,2 54092  53.2174 108.5416 0002988 351.3887 347.2586 15.82765070  1301,6700.762,90.98,324.629,320.625,0.0
54092.0,STARLINK-5190,PAYLOAD,2022-10-28 22:00:01,15.81873747,0.0003609,53.2174,106.8716,305.4777,133.0662,-0.0062629,-0.01158548,0.0,0 STARLINK-5190,1 54092U 22136AT  22301.91668981 -.01158548  00000-0 -62629-2 0  9991,2 54092  53.2174 106.8716 0003609 305.4777 133.0662 15.81873747  1300,6703.279,91.031,327.563,322.725,0.0
54092.0,STARLINK-5190,PAYLOAD,2022-10-29 12:00:00,15.80304191,0.0006642,53.2172,103.9485,272.5206,248.2858,-0.00635,-0.01100534,0.0,0 STARLINK-5190,1 54092U 22136AT  22302.50001157 -.01100534  00000-0 -63500-2 0  9994,2 54092  53.2172 103.9485 0006642 272.5206 248.2858 15.80304191  1307,6707.717,91.122,334.037,325.126,0.0
54092.0,STARLINK-5190,PAYLOAD,2022-10-29 22:00:01,15.793066,0.0004914,53.2174,101.8686,271.3502,100.5914,-0.0074138999999999,-0.01211624,0.0,0 STARLINK-5190,1 54092U 22136AT  22302.91668981 -.01211624  00000-0 -74139-2 0  9996,2 54092  53.2174 101.8686 0004914 271.3502 100.5914 15.79306600  1303,6710.541,91.179,335.704,329.1090000000001,0.0
54092.0,STARLINK-5190,PAYLOAD,2022-10-30 14:00:01,15.77567876,0.0002604,53.2175,98.5423,284.8862,277.3857,-0.0080082,-0.01207776,0.0,0 STARLINK-5190,1 54092U 22136AT  22303.58334491 -.01207776  00000-0 -80082-2 0  9993,2 54092  53.2175  98.5423 0002604 284.8862 277.3857 15.77567876  1308,6715.471,91.28,339.085,335.587,0.0
54092.0,STARLINK-5190,PAYLOAD,2022-10-30 22:00:01,15.76697666,2.08e-05,53.2173,96.8849,11.3631,284.6067,-0.0082834,-0.01200854,0.0,0 STARLINK-5190,1 54092U 22136AT  22303.91668981 -.01200854  00000-0 -82834-2 0  9991,2 54092  53.2173  96.8849 0000208  11.3631 284.6067 15.76697666  1308,6717.941999999999,91.33,339.946,339.667,0.0
54092.0,STARLINK-5190,PAYLOAD,2022-10-31 14:00:01,15.74954456,0.0001217,53.2174,93.5716,55.7144,64.3293,-0.0088824,-0.01193328,0.0,0 STARLINK-5190,1 54092U 22136AT  22304.58334491 -.01193328  00000-0 -88824-2 0  9993,2 54092  53.2174  93.5716 0001217  55.7144  64.3293 15.74954456  1303,6722.898,91.431,345.581,343.945,0.0
54092.0,STARLINK-5190,PAYLOAD,2022-10-31 20:00:01,15.74205476,0.0001149999999999,53.2176,92.3335,51.9503,46.1524,-0.0072497,-0.00950096,0.0,0 STARLINK-5190,1 54092U 22136AT  22304.83335648 -.00950096  00000-0 -72497-2 0  9997,2 54092  53.2176  92.3335 0001150  51.9503  46.1524 15.74205476  2264,6725.03,91.475,347.668,346.122,0.0
54092.0,STARLINK-5190,PAYLOAD,2022-10-31 22:00:01,15.7394718,0.0001245,53.2172,91.9201,54.6322,156.002,-0.0059465,-0.00786212,0.0,0 STARLINK-5190,1 54092U 22136AT  22304.91668981 -.00786212  00000-0 -59465-2 0  9992,2 54092  53.2172  91.9201 0001245  54.6322 156.0020 15.73947180  1301,6725.766,91.49,348.468,346.793,0.0
54092.0,STARLINK-5190,PAYLOAD,2022-11-01 04:00:00,15.73439958,0.0001437,53.2178,90.6807,43.1175,144.6124,-0.0025803,-0.00351638,0.0,0 STARLINK-5190,1 54092U 22136AT  22305.16667824 -.00351638  00000-0 -25803-2 0  9994,2 54092  53.2178  90.6807 0001437  43.1175 144.6124 15.73439958  2316,6727.2109999999975,91.519,350.043,348.1090000000001,0.0
54092.0,STARLINK-5190,PAYLOAD,2022-11-01 12:00:00,15.73314785,0.0001119,53.2169,89.0349,50.6078,226.1829,-0.00072554,-0.00101717,0.0,0 STARLINK-5190,1 54092U 22136AT  22305.50001157 -.00101717  00000-0 -72554-3 0  9990,2 54092  53.2169  89.0349 0001119  50.6078 226.1829 15.73314785  2364,6727.568,91.527,350.186,348.68,0.0
54092.0,STARLINK-5190,PAYLOAD,2022-11-01 14:00:01,15.73292275,0.000124,53.2168,88.6231,48.2962,340.7605,-0.00065716,-0.00092205,0.0,0 STARLINK-5190,1 54092U 22136AT  22305.58334491 -.00092205  00000-0 -65716-3 0  9991,2 54092  53.2168  88.6231 0001240  48.2962 340.7605 15.73292275  1305,6727.632,91.528,350.331,348.663,0.0
54092.0,STARLINK-5190,PAYLOAD,2022-11-01 22:00:00,15.73231759,0.0001483,53.2163,86.9743,45.3551,72.6969,-0.00036672,-0.00051841,0.0,0 STARLINK-5190,1 54092U 22136AT  22305.91667824 -.00051841  00000-0 -36672-3 0  9997,2 54092  53.2163  86.9743 0001483  45.3551  72.6969 15.73231759  1304,6727.805,91.531,350.667,348.672,0.0
54092.0,STARLINK-5190,PAYLOAD,2022-11-02 04:00:00,15.73183437,0.000135,53.2166,85.7354,51.0012,43.7724,-0.00018293,-0.00026195,0.0,0 STARLINK-5190,1 54092U 22136AT  22306.16667824 -.00026195  00000-0 -18293-3 0  9998,2 54092  53.2166  85.7354 0001350  51.0012  43.7724 15.73183437  2477,6727.941999999999,91.534,350.716,348.899,0.0
54092.0,STARLINK-5190,PAYLOAD,2022-11-02 14:00:01,15.73162273,0.0001725,53.2171,83.6737,53.7756,242.1229,7.7795e-05,0.00010294,0.0,0 STARLINK-5190,1 54092U 22136AT  22306.58334491  .00010294  00000-0  77795-4 0  9999,2 54092  53.2171  83.6737 0001725  53.7756 242.1229 15.73162273  1306,6728.003000000002,91.535,351.028,348.707,0.0
54092.0,STARLINK-5190,PAYLOAD,2022-11-02 18:00:02,15.73143205,0.0001771,53.2173,82.8493,50.0823,110.3277,0.00062391,0.00087647,0.0,0 STARLINK-5190,1 54092U 22136AT  22306.75002315  .00087647  00000-0  62391-3 0  9996,2 54092  53.2173  82.8493 0001771  50.0823 110.3277 15.73143205  2566,6728.057,91.536,351.11400000000015,348.731,0.0
